ATLAS CENTAUR 2         
1 00694U 63047A   25308.96032887  .00003821  00000+0  46194-3 0  9990
2 00694  30.3509 172.4266 0550207  61.4758 304.0117 14.11383111113981
THOR AGENA D R/B        
1 00733U 64002A   25308.90308476  .00000294  00000+0  12224-3 0  9998
2 00733  99.1224 310.4742 0031931 261.6553  98.1009 14.33926012220415
SL-3 R/B                
1 00877U 64053B   25308.79359920  .00000354  00000+0  93585-4 0  9997
2 00877  65.0775 337.3594 0070256 333.2711  26.4774 14.61213162248548
SL-8 R/B                
1 02802U 67045B   25308.72846378  .00000394  00000+0  11678-3 0  9998
2 02802  74.0111 221.4356 0065596 259.0672 100.3101 14.45491745 70965
SL-8 R/B                
1 03230U 68040B   25308.61681244  .00004224  00000+0  32223-3 0  9992
2 03230  74.0322 209.0413 0023385  61.9965 298.3585 15.02143609 71227
OAO 2                   
1 03597U 68110A   25308.91156142  .00000299  00000+0  85919-4 0  9992
2 03597  34.9930 241.8384 0006218 275.0627  84.9354 14.47207581  1014
ISIS 1                  
1 03669U 69009A   25308.56030214  .00000200  00000+0  14058-3 0  9999
2 03669  88.4531 168.9694 1707810 341.8418  12.8143 11.30332483334390
SERT 2                  
1 04327U 70009A   25308.80355860 -.00000001  00000+0  54609-4 0  9994
2 04327  99.2582 253.8320 0005511 117.9040 271.5626 13.58710651762933
SL-3 R/B                
1 05118U 71028B   25308.92091844  .00027400  00000+0  45330-3 0  9998
2 05118  81.2418 204.9759 0022767  18.1074 342.0980 15.51747821969261
ASTEX 1                 
1 05560U 71089A   25308.90323950  .00000651  00000+0  16610-3 0  9998
2 05560  92.7118 111.3841 0017030 139.9477 220.2988 14.50567807844219
SL-8 R/B                
1 05730U 71119B   25308.70001588  .00005938  00000+0  31705-3 0  9994
2 05730  73.8896  48.8162 0561353  40.8524 323.3316 14.34814478637543
OAO 3 (COPERNICUS)      
1 06153U 72065A   25308.91729764  .00000469  00000+0  10086-3 0  9994
2 06153  35.0060 288.1182 0007126 223.3968 159.4736 14.59854432827951
