CCSDS_OMM_VERS = 2.0
CREATION_DATE  = 
ORIGINATOR     = 

OBJECT_NAME    = ATLAS CENTAUR 2
OBJECT_ID      = 1963-047A
CENTER_NAME    = EARTH
REF_FRAME      = TEME
TIME_SYSTEM    = UTC
MEAN_ELEMENT_THEORY = SGP/SGP4

EPOCH          = 2025-11-04T23:02:52.414368
MEAN_MOTION    = 14.11383111
ECCENTRICITY   = .05502073
INCLINATION    = 30.3509
RA_OF_ASC_NODE = 172.4266
ARG_OF_PERICENTER = 61.4758
MEAN_ANOMALY   = 304.0117

EPHEMERIS_TYPE = 0
CLASSIFICATION_TYPE = U
NORAD_CAT_ID   = 694
ELEMENT_SET_NO = 999
REV_AT_EPOCH   = 11398
BSTAR          = .46194462E-3
MEAN_MOTION_DOT = .3821E-4
MEAN_MOTION_DDOT = 0

CCSDS_OMM_VERS = 2.0
CREATION_DATE  = 
ORIGINATOR     = 

OBJECT_NAME    = THOR AGENA D R/B
OBJECT_ID      = 1964-002A
CENTER_NAME    = EARTH
REF_FRAME      = TEME
TIME_SYSTEM    = UTC
MEAN_ELEMENT_THEORY = SGP/SGP4

EPOCH          = 2025-11-04T21:40:26.523264
MEAN_MOTION    = 14.33926012
ECCENTRICITY   = .00319313
INCLINATION    = 99.1224
RA_OF_ASC_NODE = 310.4742
ARG_OF_PERICENTER = 261.6553
MEAN_ANOMALY   = 98.1009

EPHEMERIS_TYPE = 0
CLASSIFICATION_TYPE = U
NORAD_CAT_ID   = 733
ELEMENT_SET_NO = 999
REV_AT_EPOCH   = 22041
BSTAR          = .12223743E-3
MEAN_MOTION_DOT = .294E-5
MEAN_MOTION_DDOT = 0

CCSDS_OMM_VERS = 2.0
CREATION_DATE  = 
ORIGINATOR     = 

OBJECT_NAME    = SL-3 R/B
OBJECT_ID      = 1964-053B
CENTER_NAME    = EARTH
REF_FRAME      = TEME
TIME_SYSTEM    = UTC
MEAN_ELEMENT_THEORY = SGP/SGP4

EPOCH          = 2025-11-04T19:02:46.970880
MEAN_MOTION    = 14.61213162
ECCENTRICITY   = .00702563
INCLINATION    = 65.0775
RA_OF_ASC_NODE = 337.3594
ARG_OF_PERICENTER = 333.2711
MEAN_ANOMALY   = 26.4774

EPHEMERIS_TYPE = 0
CLASSIFICATION_TYPE = U
NORAD_CAT_ID   = 877
ELEMENT_SET_NO = 999
REV_AT_EPOCH   = 24854
BSTAR          = .93585298E-4
MEAN_MOTION_DOT = .354E-5
MEAN_MOTION_DDOT = 0

CCSDS_OMM_VERS = 2.0
CREATION_DATE  = 
ORIGINATOR     = 

OBJECT_NAME    = SL-8 R/B
OBJECT_ID      = 1967-045B
CENTER_NAME    = EARTH
REF_FRAME      = TEME
TIME_SYSTEM    = UTC
MEAN_ELEMENT_THEORY = SGP/SGP4

EPOCH          = 2025-11-04T17:28:59.270592
MEAN_MOTION    = 14.45491745
ECCENTRICITY   = .00655967
INCLINATION    = 74.0111
RA_OF_ASC_NODE = 221.4356
ARG_OF_PERICENTER = 259.0672
MEAN_ANOMALY   = 100.3101

EPHEMERIS_TYPE = 0
CLASSIFICATION_TYPE = U
NORAD_CAT_ID   = 2802
ELEMENT_SET_NO = 999
REV_AT_EPOCH   = 7096
BSTAR          = .11677923E-3
MEAN_MOTION_DOT = .394E-5
MEAN_MOTION_DDOT = 0

CCSDS_OMM_VERS = 2.0
CREATION_DATE  = 
ORIGINATOR     = 

OBJECT_NAME    = SL-8 R/B
OBJECT_ID      = 1968-040B
CENTER_NAME    = EARTH
REF_FRAME      = TEME
TIME_SYSTEM    = UTC
MEAN_ELEMENT_THEORY = SGP/SGP4

EPOCH          = 2025-11-04T14:48:12.594816
MEAN_MOTION    = 15.02143609
ECCENTRICITY   = .0023385
INCLINATION    = 74.0322
RA_OF_ASC_NODE = 209.0413
ARG_OF_PERICENTER = 61.9965
MEAN_ANOMALY   = 298.3585

EPHEMERIS_TYPE = 0
CLASSIFICATION_TYPE = U
NORAD_CAT_ID   = 3230
ELEMENT_SET_NO = 999
REV_AT_EPOCH   = 7122
BSTAR          = .32223E-3
MEAN_MOTION_DOT = .4224E-4
MEAN_MOTION_DDOT = 0

CCSDS_OMM_VERS = 2.0
CREATION_DATE  = 
ORIGINATOR     = 

OBJECT_NAME    = OAO 2
OBJECT_ID      = 1968-110A
CENTER_NAME    = EARTH
REF_FRAME      = TEME
TIME_SYSTEM    = UTC
MEAN_ELEMENT_THEORY = SGP/SGP4

EPOCH          = 2025-11-04T21:52:38.906688
MEAN_MOTION    = 14.47207581
ECCENTRICITY   = .00062183
INCLINATION    = 34.9930
RA_OF_ASC_NODE = 241.8384
ARG_OF_PERICENTER = 275.0627
MEAN_ANOMALY   = 84.9354

EPHEMERIS_TYPE = 0
CLASSIFICATION_TYPE = U
NORAD_CAT_ID   = 3597
ELEMENT_SET_NO = 999
REV_AT_EPOCH   = 101
BSTAR          = .85919359E-4
MEAN_MOTION_DOT = .299E-5
MEAN_MOTION_DDOT = 0

CCSDS_OMM_VERS = 2.0
CREATION_DATE  = 
ORIGINATOR     = 

OBJECT_NAME    = ISIS 1
OBJECT_ID      = 1969-009A
CENTER_NAME    = EARTH
REF_FRAME      = TEME
TIME_SYSTEM    = UTC
MEAN_ELEMENT_THEORY = SGP/SGP4

EPOCH          = 2025-11-04T13:26:50.104896
MEAN_MOTION    = 11.30332483
ECCENTRICITY   = .170781
INCLINATION    = 88.4531
RA_OF_ASC_NODE = 168.9694
ARG_OF_PERICENTER = 341.8418
MEAN_ANOMALY   = 12.8143

EPHEMERIS_TYPE = 0
CLASSIFICATION_TYPE = U
NORAD_CAT_ID   = 3669
ELEMENT_SET_NO = 999
REV_AT_EPOCH   = 33439
BSTAR          = .14058E-3
MEAN_MOTION_DOT = .2E-5
MEAN_MOTION_DDOT = 0

CCSDS_OMM_VERS = 2.0
CREATION_DATE  = 
ORIGINATOR     = 

OBJECT_NAME    = SERT 2
OBJECT_ID      = 1970-009A
CENTER_NAME    = EARTH
REF_FRAME      = TEME
TIME_SYSTEM    = UTC
MEAN_ELEMENT_THEORY = SGP/SGP4

EPOCH          = 2025-11-04T19:17:07.463040
MEAN_MOTION    = 13.58710651
ECCENTRICITY   = .00055115
INCLINATION    = 99.2582
RA_OF_ASC_NODE = 253.8320
ARG_OF_PERICENTER = 117.9040
MEAN_ANOMALY   = 271.5626

EPHEMERIS_TYPE = 0
CLASSIFICATION_TYPE = U
NORAD_CAT_ID   = 4327
ELEMENT_SET_NO = 999
REV_AT_EPOCH   = 76293
BSTAR          = .54609233E-4
MEAN_MOTION_DOT = -.1E-7
MEAN_MOTION_DDOT = 0

CCSDS_OMM_VERS = 2.0
CREATION_DATE  = 
ORIGINATOR     = 

OBJECT_NAME    = SL-3 R/B
OBJECT_ID      = 1971-028B
CENTER_NAME    = EARTH
REF_FRAME      = TEME
TIME_SYSTEM    = UTC
MEAN_ELEMENT_THEORY = SGP/SGP4

EPOCH          = 2025-11-04T22:06:07.353216
MEAN_MOTION    = 15.51747821
ECCENTRICITY   = .00227672
INCLINATION    = 81.2418
RA_OF_ASC_NODE = 204.9759
ARG_OF_PERICENTER = 18.1074
MEAN_ANOMALY   = 342.0980

EPHEMERIS_TYPE = 0
CLASSIFICATION_TYPE = U
NORAD_CAT_ID   = 5118
ELEMENT_SET_NO = 999
REV_AT_EPOCH   = 96926
BSTAR          = .45330488E-3
MEAN_MOTION_DOT = .274E-3
MEAN_MOTION_DDOT = 0

CCSDS_OMM_VERS = 2.0
CREATION_DATE  = 
ORIGINATOR     = 

OBJECT_NAME    = ASTEX 1
OBJECT_ID      = 1971-089A
CENTER_NAME    = EARTH
REF_FRAME      = TEME
TIME_SYSTEM    = UTC
MEAN_ELEMENT_THEORY = SGP/SGP4

EPOCH          = 2025-11-04T21:40:39.892800
MEAN_MOTION    = 14.50567807
ECCENTRICITY   = .00170307
INCLINATION    = 92.7118
RA_OF_ASC_NODE = 111.3841
ARG_OF_PERICENTER = 139.9477
MEAN_ANOMALY   = 220.2988

EPHEMERIS_TYPE = 0
CLASSIFICATION_TYPE = U
NORAD_CAT_ID   = 5560
ELEMENT_SET_NO = 999
REV_AT_EPOCH   = 84421
BSTAR          = .16610077E-3
MEAN_MOTION_DOT = .651E-5
MEAN_MOTION_DDOT = 0

CCSDS_OMM_VERS = 2.0
CREATION_DATE  = 
ORIGINATOR     = 

OBJECT_NAME    = SL-8 R/B
OBJECT_ID      = 1971-119B
CENTER_NAME    = EARTH
REF_FRAME      = TEME
TIME_SYSTEM    = UTC
MEAN_ELEMENT_THEORY = SGP/SGP4

EPOCH          = 2025-11-04T16:48:01.372032
MEAN_MOTION    = 14.34814478
ECCENTRICITY   = .05613539
INCLINATION    = 73.8896
RA_OF_ASC_NODE = 48.8162
ARG_OF_PERICENTER = 40.8524
MEAN_ANOMALY   = 323.3316

EPHEMERIS_TYPE = 0
CLASSIFICATION_TYPE = U
NORAD_CAT_ID   = 5730
ELEMENT_SET_NO = 999
REV_AT_EPOCH   = 63754
BSTAR          = .31705319E-3
MEAN_MOTION_DOT = .5938E-4
MEAN_MOTION_DDOT = 0

CCSDS_OMM_VERS = 2.0
CREATION_DATE  = 
ORIGINATOR     = 

OBJECT_NAME    = OAO 3 (COPERNICUS)
OBJECT_ID      = 1972-065A
CENTER_NAME    = EARTH
REF_FRAME      = TEME
TIME_SYSTEM    = UTC
MEAN_ELEMENT_THEORY = SGP/SGP4

EPOCH          = 2025-11-04T22:00:54.516096
MEAN_MOTION    = 14.59854432
ECCENTRICITY   = .00071266
INCLINATION    = 35.0060
RA_OF_ASC_NODE = 288.1182
ARG_OF_PERICENTER = 223.3968
MEAN_ANOMALY   = 159.4736

EPHEMERIS_TYPE = 0
CLASSIFICATION_TYPE = U
NORAD_CAT_ID   = 6153
ELEMENT_SET_NO = 999
REV_AT_EPOCH   = 82795
BSTAR          = .10086423E-3
MEAN_MOTION_DOT = .469E-5
MEAN_MOTION_DDOT = 0

